GLOBALSTAR M057         
1 25943U 99058A   24250.44744391 -.00000025  00000+0  61432-3 0  9999
2 25943  51.9982  73.4352 0002827 133.8635 226.2448 12.24794537132166
GLOBALSTAR M059         
1 25944U 99058B   24250.48045443 -.00000074  00000+0  15125-3 0  9998
2 25944  51.9997 254.6853 0000374  85.3734  48.4154 11.99965259539989
GLOBALSTAR M056         
1 25945U 99058C   24250.45854657 -.00000006  00000+0  94784-3 0  9994
2 25945  51.9943 263.9883 0000739 333.8162 193.7690 12.04777306128421
GLOBALSTAR M031         
1 25946U 99058D   24250.28100644 -.00000007  00000+0  84472-3 0  9990
2 25946  51.9951 173.7958 0001615 341.5387 187.6237 12.16015915130001
GLOBALSTAR M039         
1 25961U 99062A   24250.61821473 -.00000062  00000+0  23253-3 0  9990
2 25961  51.9856  52.3950 0003568  82.8089 277.3183 12.62302150144406
GLOBALSTAR M034         
1 25962U 99062B   24250.55478036 -.00000069  00000+0  19149-3 0  9993
2 25962  51.9904  28.6586 0013574 223.2677 215.2575 11.79431990104903
GLOBALSTAR M029         
1 25963U 99062C   24250.14477271 -.00000039  00000+0  58472-3 0  9998
2 25963  51.9794 143.8723 0002142 293.4853 233.1727 11.99882973135026
GLOBALSTAR M061         
1 25964U 99062D   24250.27111902 -.00000073  00000+0  11889-3 0  9998
2 25964  51.9766 209.6674 0005798 148.9421 357.2650 11.76764538 87757
